NORAD_CAT_ID,OBJECT_NAME,OBJECT_TYPE,EPOCH,MEAN_MOTION,ECCENTRICITY,INCLINATION,RA_OF_ASC_NODE,ARG_OF_PERICENTER,MEAN_ANOMALY,BSTAR,MEAN_MOTION_DOT,MEAN_MOTION_DDOT,TLE_LINE0,TLE_LINE1,TLE_LINE2,SEMIMAJOR_AXIS,PERIOD,APOGEE,PERIGEE,DECAYED
52313.0,STARLINK-3749,PAYLOAD,2022-05-07 12:00:00,15.72906143,0.0001212,53.2169,296.504,43.1636,241.3451,0.0032702,0.00479501,0.0,0 STARLINK-3749,1 52313U 22041BE  22127.50001157  .00479501  00000-0  32702-2 0  9998,2 52313  53.2169 296.5040 0001212  43.1636 241.3451 15.72906143  3727,6728.733,91.55,351.414,349.783,0.0
52313.0,STARLINK-3749,PAYLOAD,2022-05-07 14:00:01,15.73139401,0.0001314,53.2172,296.0926,40.24,356.3737,0.0007626,0.00107505,0.0,0 STARLINK-3749,1 52313U 22041BE  22127.58334491  .00107505  00000-0  76260-3 0  9996,2 52313  53.2172 296.0926 0001314  40.2400 356.3737 15.73139401  3167,6728.068,91.537,350.81699999999995,349.0490000000001,0.0
52313.0,STARLINK-3749,PAYLOAD,2022-05-07 20:00:01,15.7320775,0.0001541,53.2149,294.8552,45.6902,327.8035,0.00016728,0.00022928,0.0,0 STARLINK-3749,1 52313U 22041BE  22127.83334491  .00022928  00000-0  16728-3 0  9992,2 52313  53.2149 294.8552 0001541  45.6902 327.8035 15.73207750  3774,6727.873000000001,91.533,350.775,348.701,0.0
52313.0,STARLINK-3749,PAYLOAD,2022-05-07 22:00:00,15.73212266,0.0001556,53.2147,294.443,44.608,81.1218,0.00011494,0.00015549,0.0,0 STARLINK-3749,1 52313U 22041BE  22127.91667824  .00015549  00000-0  11494-3 0  9996,2 52313  53.2147 294.4430 0001556  44.6080  81.1218 15.73212266  3215,6727.86,91.532,350.772,348.67800000000005,0.0
52313.0,STARLINK-3749,PAYLOAD,2022-05-08 12:00:00,15.7324084,0.0001466,53.2151,291.5541,55.7789,135.5901,-1.9011e-05,-3.292e-05,0.0,0 STARLINK-3749,1 52313U 22041BE  22128.50001157 -.00003292  00000-0 -19011-4 0  9991,2 52313  53.2151 291.5541 0001466  55.7789 135.5901 15.73240840  3874,6727.779,91.531,350.63,348.657,0.0
52313.0,STARLINK-3749,PAYLOAD,2022-05-08 14:00:01,15.73276762,0.0001481,53.215,291.1422,50.8933,252.7098,-0.00064623,-0.00090642,0.0,0 STARLINK-3749,1 52313U 22041BE  22128.58334491 -.00090642  00000-0 -64623-3 0  9992,2 52313  53.2150 291.1422 0001481  50.8933 252.7098 15.73276762  3322,6727.676,91.529,350.538,348.545,0.0
52313.0,STARLINK-3749,PAYLOAD,2022-05-08 22:00:00,15.7319677,0.0001665999999999,53.2147,289.4941,40.5473,352.0598,-6.9156e-05,-0.00010313,0.0,0 STARLINK-3749,1 52313U 22041BE  22128.91667824 -.00010313  00000-0 -69156-4 0  9992,2 52313  53.2147 289.4941 0001666  40.5473 352.0598 15.73196770  3378,6727.904,91.533,350.89,348.649,0.0
52313.0,STARLINK-3749,PAYLOAD,2022-05-09 06:00:00,15.73156889,0.0001503,53.2146,287.8426,46.3775,75.1509,0.00066315,0.00093316,0.0,0 STARLINK-3749,1 52313U 22041BE  22129.25001157  .00093316  00000-0  66315-3 0  9996,2 52313  53.2146 287.8426 0001503  46.3775  75.1509 15.73156889  3996,6728.018,91.536,350.894,348.872,0.0
52313.0,STARLINK-3749,PAYLOAD,2022-05-09 14:00:01,15.73259942,0.0001564999999999,53.2145,286.1939,44.3498,166.1471,-0.00058948,-0.00082755,0.0,0 STARLINK-3749,1 52313U 22041BE  22129.58335648 -.00082755  00000-0 -58948-3 0  9997,2 52313  53.2145 286.1939 0001565  44.3498 166.1471 15.73259942  3481,6727.724,91.53,350.642,348.536,0.0
52313.0,STARLINK-3749,PAYLOAD,2022-05-09 22:00:00,15.73196532,0.0001705,53.2138,284.5456,35.0851,264.3185,-4.0157e-06,-1.184e-05,0.0,0 STARLINK-3749,1 52313U 22041BE  22129.91667824 -.00001184  00000-0 -40157-5 0  9990,2 52313  53.2138 284.5456 0001705  35.0851 264.3185 15.73196532  4103,6727.905,91.533,350.917,348.62300000000016,0.0
52313.0,STARLINK-3749,PAYLOAD,2022-05-10 06:00:00,15.73140607,0.000155,53.2139,282.8938,44.1136,344.2029,0.00064796,0.00091076,0.0,0 STARLINK-3749,1 52313U 22041BE  22130.25001157  .00091076  00000-0  64796-3 0  9990,2 52313  53.2139 282.8938 0001550  44.1136 344.2029 15.73140607  4157,6728.065,91.537,350.972,348.88699999999994,0.0
52313.0,STARLINK-3749,PAYLOAD,2022-05-10 14:00:01,15.73249254,0.0001662,53.2142,281.2452,40.9568,76.253,-0.00085346,-0.00118975,0.0,0 STARLINK-3749,1 52313U 22041BE  22130.58334491 -.00118975  00000-0 -85346-3 0  9990,2 52313  53.2142 281.2452 0001662  40.9568  76.2530 15.73249254  3642,6727.755,91.53,350.73800000000006,348.50199999999984,0.0
52313.0,STARLINK-3749,PAYLOAD,2022-05-10 19:36:10,15.73227858,0.0001771,53.2142,280.0889,36.8279,323.2863,0.00024126,0.00033415,0.0,0 STARLINK-3749,1 52313U 22041BE  22130.81678944  .00033415  00000-0  24126-3 0  9992,2 52313  53.2142 280.0889 0001771  36.8279 323.2863 15.73227858  4244,6727.816,91.532,350.872,348.48900000000015,0.0
52313.0,STARLINK-3749,PAYLOAD,2022-05-11 22:00:00,15.73242899,0.0001914,53.2131,274.6477,29.5145,83.4875,-0.00024169,-0.00034467,0.0,0 STARLINK-3749,1 52313U 22041BE  22131.91667824 -.00034467  00000-0 -24169-3 0  9996,2 52313  53.2131 274.6477 0001914  29.5145  83.4875 15.73242899  4413,6727.773,91.531,350.926,348.35,0.0
52313.0,STARLINK-3749,PAYLOAD,2022-05-12 14:00:01,15.73239939,0.0001884,53.2136,271.3474,32.1773,258.7465,-0.00055805,-0.00078353,0.0,0 STARLINK-3749,1 52313U 22041BE  22132.58334491 -.00078353  00000-0 -55805-3 0  9994,2 52313  53.2136 271.3474 0001884  32.1773 258.7465 15.73239939  1300,6727.781,91.531,350.914,348.379,0.0
52313.0,STARLINK-3749,PAYLOAD,2022-05-12 20:00:01,15.73201203,0.0002083,53.2138,270.1111,28.2425,239.4232,-0.0001015,-0.00014843,0.0,0 STARLINK-3749,1 52313U 22041BE  22132.83334491 -.00014843  00000-0 -10150-3 0  9990,2 52313  53.2138 270.1111 0002083  28.2425 239.4232 15.73201203  4550,6727.892,91.533,351.158,348.355,0.0
52313.0,STARLINK-3749,PAYLOAD,2022-05-12 22:00:00,15.73204576,0.0002091,53.2135,269.6983,27.3441,352.5524,-0.00019906,-0.00028472,0.0,0 STARLINK-3749,1 52313U 22041BE  22132.91667824 -.00028472  00000-0 -19906-3 0  9999,2 52313  53.2135 269.6983 0002091  27.3441 352.5524 15.73204576  1301,6727.882,91.533,351.154,348.34,0.0
52313.0,STARLINK-3749,PAYLOAD,2022-05-13 14:00:01,15.73179509,0.0002215,53.2136,266.3987,34.9573,162.7435,-0.00023374,-0.0003327,0.0,0 STARLINK-3749,1 52313U 22041BE  22133.58334491 -.00033270  00000-0 -23374-3 0  9990,2 52313  53.2136 266.3987 0002215  34.9573 162.7435 15.73179509  1307,6727.954000000002,91.534,351.309,348.32800000000015,0.0
52313.0,STARLINK-3749,PAYLOAD,2022-05-13 22:00:00,15.73147581,0.0002265,53.213,264.7493,30.1596,256.4331,0.00018783,0.00025764,0.0,0 STARLINK-3749,1 52313U 22041BE  22133.91667824  .00025764  00000-0  18783-3 0  9991,2 52313  53.2130 264.7493 0002265  30.1596 256.4331 15.73147581  4723,6728.045,91.536,351.434,348.386,0.0
52313.0,STARLINK-3749,PAYLOAD,2022-05-14 14:00:01,15.73232553,0.0002176,53.2136,261.4499,26.2901,78.1709,-0.00031653,-0.00044875,0.0,0 STARLINK-3749,1 52313U 22041BE  22134.58334491 -.00044875  00000-0 -31653-3 0  9993,2 52313  53.2136 261.4499 0002176  26.2901  78.1709 15.73232553  4830,6727.802,91.531,351.131,348.20300000000015,0.0
52313.0,STARLINK-3749,PAYLOAD,2022-05-14 22:00:00,15.7325625,0.0002303,53.2136,259.8004,23.4055,169.9966,-0.00029729,-0.00042241,0.0,0 STARLINK-3749,1 52313U 22041BE  22134.91667824 -.00042241  00000-0 -29729-3 0  9995,2 52313  53.2136 259.8004 0002303  23.4055 169.9966 15.73256250  4883,6727.735,91.53,351.149,348.05,0.0
52313.0,STARLINK-3749,PAYLOAD,2022-05-15 14:00:01,15.73206011,0.0002304,53.2137,256.501,20.5326,350.85400000000016,-0.00051723,-0.00072616,0.0,0 STARLINK-3749,1 52313U 22041BE  22135.58335648 -.00072616  00000-0 -51723-3 0  9993,2 52313  53.2137 256.5010 0002304  20.5326 350.8540 15.73206011  1308,6727.878000000002,91.533,351.293,348.1930000000001,0.0
52313.0,STARLINK-3749,PAYLOAD,2022-05-15 22:00:00,15.73176312,0.0002424,53.2131,254.8514,18.5178,81.7215,-3.8003e-05,-5.947e-05,0.0,0 STARLINK-3749,1 52313U 22041BE  22135.91667824 -.00005947  00000-0 -38003-4 0  9994,2 52313  53.2131 254.8514 0002424  18.5178  81.7215 15.73176312  1306,6727.9630000000025,91.535,351.459,348.19699999999995,0.0
52313.0,STARLINK-3749,PAYLOAD,2022-05-16 06:00:02,15.73141468,0.0002197,53.2133,253.2001,22.7904,166.3926,0.00077417,0.00109183,0.0,0 STARLINK-3749,1 52313U 22041BE  22136.25002315  .00109183  00000-0  77417-3 0  9996,2 52313  53.2133 253.2001 0002197  22.7904 166.3926 15.73141468  5096,6728.062,91.537,351.405,348.449,0.0
52313.0,STARLINK-3749,PAYLOAD,2022-05-16 12:00:00,15.73240393,0.0002357,53.2137,251.9646,21.7269,144.0504,-0.00061237,-0.00085853,0.0,0 STARLINK-3749,1 52313U 22041BE  22136.50001157 -.00085853  00000-0 -61237-3 0  9999,2 52313  53.2137 251.9646 0002357  21.7269 144.0504 15.73240393  5138,6727.78,91.531,351.231,348.059,0.0
52313.0,STARLINK-3749,PAYLOAD,2022-05-16 14:00:01,15.73238065,0.000244,53.2135,251.5528,20.8727,257.1425,-0.00078362,-0.00109376,0.0,0 STARLINK-3749,1 52313U 22041BE  22136.58334491 -.00109376  00000-0 -78362-3 0  9991,2 52313  53.2135 251.5528 0002440  20.8727 257.1425 15.73238065  1309,6727.7869999999975,91.531,351.293,348.01,0.0
52313.0,STARLINK-3749,PAYLOAD,2022-05-16 20:00:01,15.73178605,0.0002631,53.2139,250.3158,18.8733,235.8658,-0.00013764,-0.00019879,0.0,0 STARLINK-3749,1 52313U 22041BE  22136.83334491 -.00019879  00000-0 -13764-3 0  9992,2 52313  53.2139 250.3158 0002631  18.8733 235.8658 15.73178605  5189,6727.956,91.534,351.591,348.051,0.0
52313.0,STARLINK-3749,PAYLOAD,2022-05-16 22:00:00,15.73169558,0.0002593,53.2142,249.9029,19.9602,347.0048,-1.924e-05,-3.318e-05,0.0,0 STARLINK-3749,1 52313U 22041BE  22136.91667824 -.00003318  00000-0 -19240-4 0  9997,2 52313  53.2142 249.9029 0002593  19.9602 347.0048 15.73169558  1304,6727.982,91.535,351.592,348.102,0.0
52313.0,STARLINK-3749,PAYLOAD,2022-05-17 12:00:00,15.732379000000002,0.0002659,53.2151,247.0164,22.0115,50.5225,-4.577100000000001e-05,-7.052e-05,0.0,0 STARLINK-3749,1 52313U 22041BE  22137.50001157 -.00007052  00000-0 -45771-4 0  9991,2 52313  53.2151 247.0164 0002659  22.0115  50.5225 15.73237900  5292,6727.7869999999975,91.531,351.441,347.86300000000006,0.0
